Satellite: OKEAN-4
Catalog number: 23317
Epoch time:      11202.57308645
Element set:     616
Inclination:      082.5405 deg
RA of node:       341.0252 deg
Eccentricity:    0.0022543
Arg of perigee:   010.2986 deg
Mean anomaly:     349.8683 deg
Mean motion:   14.83109025 rev/day
Decay rate:       4.54e-06 rev/day^2
Epoch rev:           90564
Checksum:              281

Satellite: NOAA-14
Catalog number: 23455
Epoch time:      11201.86356848
Element set:    0567
Inclination:      098.8525 deg
RA of node:       284.1649 deg
Eccentricity:    0.0009161
Arg of perigee:   179.3184 deg
Mean anomaly:     180.8002 deg
Mean motion:   14.13824976 rev/day
Decay rate:       -3.4e-07 rev/day^2
Epoch rev:           85383
Checksum:              326

Satellite: NOAA-15
Catalog number: 25338
Epoch time:      11201.79989992
Element set:    0890
Inclination:      098.6568 deg
RA of node:       187.4849 deg
Eccentricity:    0.0010762
Arg of perigee:   000.8238 deg
Mean anomaly:     359.2975 deg
Mean motion:   14.24932943 rev/day
Decay rate:        1.2e-07 rev/day^2
Epoch rev:           68551
Checksum:              351

Satellite: RESURS
Catalog number: 25394
Epoch time:      11202.88280010
Element set:     849
Inclination:      098.3018 deg
RA of node:       203.9963 deg
Eccentricity:    0.0002023
Arg of perigee:   102.4038 deg
Mean anomaly:     257.7368 deg
Mean motion:   14.24235547 rev/day
Decay rate:       -6.0e-08 rev/day^2
Epoch rev:           67724
Checksum:              282

Satellite: FENGYUN1
Catalog number: 25730
Epoch time:      11202.90430044
Element set:     378
Inclination:      098.8185 deg
RA of node:       163.3377 deg
Eccentricity:    0.0022004
Arg of perigee:   214.8675 deg
Mean anomaly:     145.1054 deg
Mean motion:   14.08698450 rev/day
Decay rate:       7.47e-06 rev/day^2
Epoch rev:           62795
Checksum:              297

Satellite: OKEAN-0
Catalog number: 25860
Epoch time:      11201.97244273
Element set:    0384
Inclination:      097.8873 deg
RA of node:       167.4927 deg
Eccentricity:    0.0000556
Arg of perigee:   084.1863 deg
Mean anomaly:     275.9406 deg
Mean motion:   14.73805730 rev/day
Decay rate:       1.40e-06 rev/day^2
Epoch rev:           64563
Checksum:              313

Satellite: NOAA-16
Catalog number: 26536
Epoch time:      11201.72075982
Element set:    0372
Inclination:      099.1379 deg
RA of node:       232.9415 deg
Eccentricity:    0.0009700
Arg of perigee:   300.5636 deg
Mean anomaly:     059.4581 deg
Mean motion:   14.12631807 rev/day
Decay rate:       1.22e-06 rev/day^2
Epoch rev:           55809
Checksum:              296

Satellite: NOAA-17
Catalog number: 27453
Epoch time:      11201.75606046
Element set:    0360
Inclination:      098.3769 deg
RA of node:       239.9232 deg
Eccentricity:    0.0012561
Arg of perigee:   054.3413 deg
Mean anomaly:     305.8918 deg
Mean motion:   14.24293127 rev/day
Decay rate:        2.9e-07 rev/day^2
Epoch rev:           47143
Checksum:              294

Satellite: NOAA-18
Catalog number: 28654
Epoch time:      11201.77109007
Element set:    0840
Inclination:      098.9982 deg
RA of node:       153.0043 deg
Eccentricity:    0.0014567
Arg of perigee:   014.1366 deg
Mean anomaly:     346.0205 deg
Mean motion:   14.11495646 rev/day
Decay rate:       4.26e-06 rev/day^2
Epoch rev:           31766
Checksum:              293

Satellite: NOAA-19
Catalog number: 33591
Epoch time:      11201.77571193
Element set:    0031
Inclination:      098.8281 deg
RA of node:       141.3680 deg
Eccentricity:    0.0013131
Arg of perigee:   240.4688 deg
Mean anomaly:     119.5200 deg
Mean motion:   14.11184022 rev/day
Decay rate:       -6.3e-07 rev/day^2
Epoch rev:           12612
Checksum:              255

/EX
SB KEPS @ AMSAT  $ORB11202.M
Orbital Elements  11202.MISC

HR AMSAT ORBITAL ELEMENTS FOR MANNED AND MISCELLANEOUS SATELLITES
FROM WA5QGD FORT WORTH,TX July 21, 2011
Send Subscribe/unsubscribe to KEPS at http://www.amsat.org/mailman/listinfo/keps
BID: ORB11202.M
TO ALL RADIO AMATEURS BT

Satellite: HUBBLE
Catalog number: 20580
Epoch time:      11201.28828586
Element set:     801
Inclination:      028.4691 deg
RA of node:       160.2129 deg
Eccentricity:    0.0003585
Arg of perigee:   116.6907 deg
Mean anomaly:     243.4152 deg
Mean motion:   15.01425223 rev/day
Decay rate:       6.00e-06 rev/day^2
Epoch rev:           96463
Checksum:              267

Satellite: ISS
Catalog number: 25544
Epoch time:      11202.87696503
Element set:     757
Inclination:      051.6422 deg
RA of node:       346.0977 deg
Eccentricity:    0.0011648
Arg of perigee:   349.5486 deg
Mean anomaly:     147.5303 deg
Mean motion:   15.60142338 rev/day
Decay rate:     4.8952e-04 rev/day^2
Epoch rev:           72632
Checksum:              315

Satellite: CO-58
Catalog number: 28895
Epoch time:      11201.64414643
Element set:     927
Inclination:      097.9609 deg
RA of node:       076.7323 deg
Eccentricity:    0.0018920
Arg of perigee:   114.4801 deg
Mean anomaly:     245.8390 deg
Mean motion:   14.60134326 rev/day
Decay rate:       2.88e-06 rev/day^2
Epoch rev:           30512
Checksum:              307

Satellite: FALCON
Catalog number: 30776
Epoch time:      11201.94907914
Element set:    0148
Inclination:      035.4325 deg
RA of node:       141.6701 deg
Eccentricity:    0.0001797
Arg of perigee:   358.9499 deg
Mean anomaly:     001.1224 deg
Mean motion:   15.04755276 rev/day
Decay rate:      1.228e-05 rev/day^2
Epoch rev:           24013
Checksum:              280

Satellite: MAST
Catalog number: 31126
Epoch time:      11202.58742182
Element set:     214
Inclination:      097.8929 deg
RA of node:       227.8674 deg
Eccentricity:    0.0095518
Arg of perigee:   064.0390 deg
Mean anomaly:     297.0602 deg
Mean motion:   14.53773879 rev/day
Decay rate:       3.30e-06 rev/day^2
Epoch rev:           22608
Checksum:              306

Satellite: CAPE1
Catalog number: 31130
Epoch time:      11201.64122139
Element set:    0229
Inclination:      097.8976 deg
RA of node:       223.6916 deg
Eccentricity:    0.0103541
Arg of perigee:   077.5392 deg
Mean anomaly:     283.7399 deg
Mean motion:   14.52424224 rev/day
Decay rate:       4.46e-06 rev/day^2
Epoch rev:           22549
Checksum:              293

Satellite: COMPASS
Catalog number: 32787
Epoch time:      11202.16130385
Element set:      43
Inclination:      097.8452 deg
RA of node:       265.3434 deg
Eccentricity:    0.0016829
Arg of perigee:   066.6393 deg
Mean anomaly:     293.6575 deg
Mean motion:   14.82502257 rev/day
Decay rate:      1.095e-05 rev/day^2
Epoch rev:           17459
Checksum:              310

