OKEAN-4
1 23317U 94066A   11202.57308645  .00000454  00000-0  52547-4 0  6161
2 23317 082.5405 341.0252 0022543 010.2986 349.8683 14.83109025905649
NOAA-14
1 23455U 94089A   11201.86356848 -.00000034  00000-0  55595-5 0 05675
2 23455 098.8525 284.1649 0009161 179.3184 180.8002 14.13824976853833
NOAA-15
1 25338U 98030A   11201.79989992  .00000012  00000-0  23779-4 0 08903
2 25338 098.6568 187.4849 0010762 000.8238 359.2975 14.24932943685519
RESURS
1 25394U 98043A   11202.88280010 -.00000006  00000-0  14911-4 0  8491
2 25394 098.3018 203.9963 0002023 102.4038 257.7368 14.24235547677242
FENGYUN1
1 25730U 99025A   11202.90430044  .00000747  00000-0  45774-3 0  3781
2 25730 098.8185 163.3377 0022004 214.8675 145.1054 14.08698450627953
OKEAN-0
1 25860U 99039A   11201.97244273  .00000140  00000-0  28867-4 0 03842
2 25860 097.8873 167.4927 0000556 084.1863 275.9406 14.73805730645632
NOAA-16
1 26536U 00055A   11201.72075982  .00000122  00000-0  90876-4 0 03721
2 26536 099.1379 232.9415 0009700 300.5636 059.4581 14.12631807558099
NOAA-17
1 27453U 02032A   11201.75606046  .00000029  00000-0  30200-4 0 03609
2 27453 098.3769 239.9232 0012561 054.3413 305.8918 14.24293127471438
NOAA-18
1 28654U 05018A   11201.77109007  .00000426  00000-0  25934-3 0 08408
2 28654 098.9982 153.0043 0014567 014.1366 346.0205 14.11495646317666
NOAA-19
1 33591U 09005A   11201.77571193 -.00000063  00000-0 -10470-4 0 00314
2 33591 098.8281 141.3680 0013131 240.4688 119.5200 14.11184022126127
HUBBLE
1 20580U 90037B   11201.28828586  .00000600  00000-0  32644-4 0  8017
2 20580 028.4691 160.2129 0003585 116.6907 243.4152 15.01425223964633
ISS
1 25544U 98067A   11202.87696503  .00048952  00000-0  59157-3 0  7570
2 25544 051.6422 346.0977 0011648 349.5486 147.5303 15.60142338726323
CO-58
1 28895U 05043F   11201.64414643  .00000288  00000-0  69046-4 0  9279
2 28895 097.9609 076.7323 0018920 114.4801 245.8390 14.60134326305123
FALCON
1 30776U 07006E   11201.94907914  .00001228  00000-0  88310-4 0 01487
2 30776 035.4325 141.6701 0001797 358.9499 001.1224 15.04755276240130
MAST
1 31126U 07012K   11202.58742182  .00000330  00000-0  84163-4 0  2148
2 31126 097.8929 227.8674 0095518 064.0390 297.0602 14.53773879226083
CAPE1
1 31130U 07012P   11201.64122139  .00000446  00000-0  11231-3 0 02292
2 31130 097.8976 223.6916 0103541 077.5392 283.7399 14.52424224225495
COMPASS
1 32787U 08021E   11202.16130385  .00001095  00000-0  14260-3 0   432
2 32787 097.8452 265.3434 0016829 066.6393 293.6575 14.82502257174599
